0 SL-8 R/B
1 03131U 68011B   13282.43242741  .00000108  00000-0  32669-3 0  1267
2 03131 074.0523 230.3327 0015390 290.7900 069.1539 13.17900056195310
0 SL-8 R/B
1 03131U 68011B   13284.10234988  .00000020  00000-0  10177-3 0  1271
2 03131 074.0523 227.8258 0015389 288.0788 071.8624 13.17901955195534
0 SL-8 R/B
1 03131U 68011B   13285.39274093  .00000282  00000-0  77123-3 0  1289
2 03131 074.0529 225.8894 0015359 285.8565 074.0831 13.17900120195706
0 SL-8 R/B
1 03131U 68011B   13286.83494994 -.00000186  00000-0 -42622-3 0  1295
2 03131 074.0525 223.7236 0015288 283.8385 076.1002 13.17904901195892
0 SL-8 R/B
1 03131U 68011B   13287.97353021 -.00000191  00000-0 -43948-3 0  1306
2 03131 074.0526 222.0142 0015293 281.9831 077.9543 13.17904911196040
0 SL-8 R/B
1 03131U 68011B   13289.11210855 -.00000134  00000-0 -29413-3 0  1310
2 03131 074.0528 220.3049 0015334 280.0880 079.8479 13.17904029196194
0 SL-8 R/B
1 03131U 68011B   13290.40250086 -.00000396  00000-0 -96600-3 0  1327
2 03131 074.0531 218.3688 0015351 277.7666 082.1680 13.17906169196365
0 SL-8 R/B
1 03131U 68011B   13291.76879397 -.00000264  00000-0 -62628-3 0  1337
2 03131 074.0530 216.3179 0015333 275.5776 084.3563 13.17904046196541
0 SL-8 R/B
1 03131U 68011B   13292.83146436  .00000146  00000-0  42263-3 0  1348
2 03131 074.0527 214.7217 0015330 274.1044 085.8292 13.17899916196681
0 SL-8 R/B
1 03131U 68011B   13293.97004511  .00000173  00000-0  49361-3 0  1358
2 03131 074.0529 213.0137 0015349 272.0353 087.8977 13.17899620196837
0 SL-8 R/B
1 03131U 68011B   13295.03272053  .00000348  00000-0  94165-3 0  1362
2 03131 074.0529 211.4184 0015336 270.3090 089.6241 13.17898594196974
0 SL-8 R/B
1 03131U 68011B   13296.17130339  .00000407  00000-0  10928-2 0  1379
2 03131 074.0529 209.7092 0015325 268.4599 091.4734 13.17898959197123
